STARLINK-1559           
1 46077U 20055BC  26068.23360559  .00042685  00000+0  14779-2 0  9995
2 46077  53.0254  76.0659 0004229  33.9710 326.1559 15.29461733309518
STARLINK-32391          
1 61855U 24202L   26068.51963344 -.00005904  00000+0 -20506-3 0  9997
2 61855  43.0046 238.7795 0002418 308.2323  51.8311 15.27594358 75304
